<?xml version="1.0" encoding="UTF-8"?>
<kml xmlns="http://www.opengis.net/kml/2.2">
  <Document>
    <name>Hawaii Pentagon</name>
    <Placemark>
      <name>Pacific Fiji</name>
      <Polygon>
        <altitudeMode>clampToGround</altitudeMode>
        <outerBoundaryIs>
          <LinearRing>
            <tessellate>1</tessellate>
            <coordinates>
              160.25,19.5,0
              160.5,19.8,0
              160.75,20.11,0
              161,20.41,0
              161.25,20.7,0
              161.5,21,0
              161.75,21.3,0
              162,21.59,0
              162.25,21.89,0
              162.5,22.18,0
              162.75,22.47,0
              163,22.75,0
              163.25,23.04,0
              163.5,23.33,0
              163.75,23.61,0
              164,23.89,0
              164.25,24.17,0
              164.5,24.45,0
              164.75,24.73,0
              165,25,0
              165.25,25.27,0
              165.5,25.55,0
              165.75,25.82,0
              166,26.08,0
              166.25,26.35,0
              166.5,26.62,0
              166.75,26.88,0
              167,27.14,0
              167.25,27.4,0
              167.5,27.66,0
              167.75,27.92,0
              168,28.17,0
              168.25,28.43,0
              168.5,28.68,0
              168.75,28.93,0
              169,29.18,0
              169.25,29.42,0
              169.5,29.67,0
              169.75,29.91,0
              170,30.15,0
              170.25,30.39,0
              170.5,30.63,0
              170.75,30.87,0
              171,31.1,0
              171.25,31.34,0
              171.5,31.57,0
              171.75,31.8,0
              172,32.03,0
              172.25,32.26,0
              172.5,32.48,0
              172.75,32.71,0
              173,32.93,0
              173.25,33.15,0
              173.5,33.37,0
              173.75,33.59,0
              174,33.8,0
              174.25,34.02,0
              174.5,34.23,0
              174.75,34.44,0
              175,34.65,0
              175.25,34.86,0
              175.5,35.06,0
              175.75,35.27,0
              176,35.47,0
              176.25,35.67,0
              176.5,35.87,0
              176.75,36.07,0
              177,36.27,0
              177.25,36.47,0
              177.5,36.66,0
              177.75,36.85,0
              178,37.04,0
              178.25,37.23,0
              178.5,37.42,0
              178.75,37.61,0
              179,37.8,0
              179.25,37.98,0
              179.5,38.16,0
              179.75,38.34,0
              179.99999,38.52,0
              179.99999,-20,0
              179.75,-19.97,0
              179.5,-19.94,0
              179.25,-19.92,0
              179,-19.89,0
              178.75,-19.86,0
              178.5,-19.83,0
              178.25,-19.8,0
              178,-19.78,0
              177.75,-19.75,0
              177.5,-19.72,0
              177.25,-19.69,0
              177,-19.66,0
              176.75,-19.63,0
              176.5,-19.59,0
              176.25,-19.56,0
              176,-19.53,0
              175.75,-19.5,0
              175.5,-18.92,0
              175.25,-18.34,0
              175,-17.75,0
              174.75,-17.15,0
              174.5,-16.56,0
              174.25,-15.95,0
              174,-15.35,0
              173.75,-14.74,0
              173.5,-14.13,0
              173.25,-13.51,0
              173,-12.89,0
              172.75,-12.27,0
              172.5,-11.64,0
              172.25,-11.01,0
              172,-10.38,0
              171.75,-9.75,0
              171.5,-9.11,0
              171.25,-8.47,0
              171,-7.83,0
              170.75,-7.18,0
              170.5,-6.53,0
              170.25,-5.89,0
              170,-5.24,0
              169.75,-4.58,0
              169.5,-3.93,0
              169.25,-3.28,0
              169,-2.62,0
              168.75,-1.97,0
              168.5,-1.31,0
              168.25,-0.66,0
              168,0,0
              167.75,0.66,0
              167.5,1.31,0
              167.25,1.97,0
              167,2.62,0
              166.75,3.28,0
              166.5,3.93,0
              166.25,4.58,0
              166,5.24,0
              165.75,5.89,0
              165.5,6.53,0
              165.25,7.18,0
              165,7.83,0
              164.75,8.47,0
              164.5,9.11,0
              164.25,9.75,0
              164,10.38,0
              163.75,11.01,0
              163.5,11.64,0
              163.25,12.27,0
              163,12.89,0
              162.75,13.51,0
              162.5,14.13,0
              162.25,14.74,0
              162,15.35,0
              161.75,15.95,0
              161.5,16.56,0
              161.25,17.15,0
              161,17.75,0
              160.75,18.34,0
              160.5,18.92,0
              160.25,19.5,0
            </coordinates>
          </LinearRing>
        </outerBoundaryIs>
      </Polygon>
    </Placemark>
    <Placemark>
      <name>Pacific Hawaii</name>
      <Polygon>
        <altitudeMode>clampToGround</altitudeMode>
        <outerBoundaryIs>
          <LinearRing>
            <tessellate>1</tessellate>
            <coordinates>
              -179.99999,38.52,0
              -179.75,38.7,0
              -179.5,38.88,0
              -179.25,39.05,0
              -179,39.23,0
              -178.75,39.4,0
              -178.5,39.57,0
              -178.25,39.74,0
              -178,39.91,0
              -177.75,40.08,0
              -177.5,40.24,0
              -177.25,40.41,0
              -177,40.57,0
              -176.75,40.73,0
              -176.5,40.89,0
              -176.25,41.05,0
              -176,41.21,0
              -175.75,41.37,0
              -175.5,41.52,0
              -175.25,41.67,0
              -175,41.83,0
              -174.75,41.98,0
              -174.5,42.13,0
              -174.25,42.28,0
              -174,42.43,0
              -173.75,42.57,0
              -173.5,42.72,0
              -173.25,42.86,0
              -173,43,0
              -172.75,43.15,0
              -172.5,43.29,0
              -172.25,43.42,0
              -172,43.56,0
              -171.75,43.7,0
              -171.5,43.84,0
              -171.25,43.97,0
              -171,44.1,0
              -170.75,44.24,0
              -170.5,44.37,0
              -170.25,44.5,0
              -170,44.63,0
              -169.75,44.75,0
              -169.5,44.88,0
              -169.25,45.01,0
              -169,45.13,0
              -168.75,45.25,0
              -168.5,45.38,0
              -168.25,45.5,0
              -168,45.62,0
              -167.75,45.74,0
              -167.5,45.85,0
              -167.25,45.97,0
              -167,46.09,0
              -166.75,46.2,0
              -166.5,46.32,0
              -166.25,46.43,0
              -166,46.54,0
              -165.75,46.65,0
              -165.5,46.76,0
              -165.25,46.87,0
              -165,46.98,0
              -164.75,47.09,0
              -164.5,47.19,0
              -164.25,47.3,0
              -164,47.4,0
              -163.75,47.5,0
              -163.5,47.61,0
              -163.25,47.71,0
              -163,47.81,0
              -162.75,47.91,0
              -162.5,48.01,0
              -162.25,48.1,0
              -162,48.2,0
              -161.75,48.1,0
              -161.5,48.01,0
              -161.25,47.91,0
              -161,47.81,0
              -160.75,47.71,0
              -160.5,47.61,0
              -160.25,47.5,0
              -160,47.4,0
              -159.75,47.3,0
              -159.5,47.19,0
              -159.25,47.09,0
              -159,46.98,0
              -158.75,46.87,0
              -158.5,46.76,0
              -158.25,46.65,0
              -158,46.54,0
              -157.75,46.43,0
              -157.5,46.32,0
              -157.25,46.2,0
              -157,46.09,0
              -156.75,45.97,0
              -156.5,45.85,0
              -156.25,45.74,0
              -156,45.62,0
              -155.75,45.5,0
              -155.5,45.38,0
              -155.25,45.25,0
              -155,45.13,0
              -154.75,45.01,0
              -154.5,44.88,0
              -154.25,44.75,0
              -154,44.63,0
              -153.75,44.5,0
              -153.5,44.37,0
              -153.25,44.24,0
              -153,44.1,0
              -152.75,43.97,0
              -152.5,43.84,0
              -152.25,43.7,0
              -152,43.56,0
              -151.75,43.42,0
              -151.5,43.29,0
              -151.25,43.15,0
              -151,43,0
              -150.75,42.86,0
              -150.5,42.72,0
              -150.25,42.57,0
              -150,42.43,0
              -149.75,42.28,0
              -149.5,42.13,0
              -149.25,41.98,0
              -149,41.83,0
              -148.75,41.67,0
              -148.5,41.52,0
              -148.25,41.37,0
              -148,41.21,0
              -147.75,41.05,0
              -147.5,40.89,0
              -147.25,40.73,0
              -147,40.57,0
              -146.75,40.41,0
              -146.5,40.24,0
              -146.25,40.08,0
              -146,39.91,0
              -145.75,39.74,0
              -145.5,39.57,0
              -145.25,39.4,0
              -145,39.23,0
              -144.75,39.05,0
              -144.5,38.88,0
              -144.25,38.7,0
              -144,38.52,0
              -143.75,38.34,0
              -143.5,38.16,0
              -143.25,37.98,0
              -143,37.8,0
              -142.75,37.61,0
              -142.5,37.42,0
              -142.25,37.23,0
              -142,37.04,0
              -141.75,36.85,0
              -141.5,36.66,0
              -141.25,36.47,0
              -141,36.27,0
              -140.75,36.07,0
              -140.5,35.87,0
              -140.25,35.67,0
              -140,35.47,0
              -139.75,35.27,0
              -139.5,35.06,0
              -139.25,34.86,0
              -139,34.65,0
              -138.75,34.44,0
              -138.5,34.23,0
              -138.25,34.02,0
              -138,33.8,0
              -137.75,33.59,0
              -137.5,33.37,0
              -137.25,33.15,0
              -137,32.93,0
              -136.75,32.71,0
              -136.5,32.48,0
              -136.25,32.26,0
              -136,32.03,0
              -135.75,31.8,0
              -135.5,31.57,0
              -135.25,31.34,0
              -135,31.1,0
              -134.75,30.87,0
              -134.5,30.63,0
              -134.25,30.39,0
              -134,30.15,0
              -133.75,29.91,0
              -133.5,29.67,0
              -133.25,29.42,0
              -133,29.18,0
              -132.75,28.93,0
              -132.5,28.68,0
              -132.25,28.43,0
              -132,28.17,0
              -131.75,27.92,0
              -131.5,27.66,0
              -131.25,27.4,0
              -131,27.14,0
              -130.75,26.88,0
              -130.5,26.62,0
              -130.25,26.35,0
              -130,26.08,0
              -129.75,25.82,0
              -129.5,25.55,0
              -129.25,25.27,0
              -129,25,0
              -128.75,24.73,0
              -128.5,24.45,0
              -128.25,24.17,0
              -128,23.89,0
              -127.75,23.61,0
              -127.5,23.33,0
              -127.25,23.04,0
              -127,22.75,0
              -126.75,22.47,0
              -126.5,22.18,0
              -126.25,21.89,0
              -126,21.59,0
              -125.75,21.3,0
              -125.5,21,0
              -125.25,20.7,0
              -125,20.41,0
              -124.75,20.11,0
              -124.5,19.8,0
              -124.25,19.5,0
              -124.5,18.92,0
              -124.75,18.34,0
              -125,17.75,0
              -125.25,17.15,0
              -125.5,16.56,0
              -125.75,15.95,0
              -126,15.35,0
              -126.25,14.74,0
              -126.5,14.13,0
              -126.75,13.51,0
              -127,12.89,0
              -127.25,12.27,0
              -127.5,11.64,0
              -127.75,11.01,0
              -128,10.38,0
              -128.25,9.75,0
              -128.5,9.11,0
              -128.75,8.47,0
              -129,7.83,0
              -129.25,7.18,0
              -129.5,6.53,0
              -129.75,5.89,0
              -130,5.24,0
              -130.25,4.58,0
              -130.5,3.93,0
              -130.75,3.28,0
              -131,2.62,0
              -131.25,1.97,0
              -131.5,1.31,0
              -131.75,0.66,0
              -132,0,0
              -132.25,-0.66,0
              -132.5,-1.31,0
              -132.75,-1.97,0
              -133,-2.62,0
              -133.25,-3.28,0
              -133.5,-3.93,0
              -133.75,-4.58,0
              -134,-5.24,0
              -134.25,-5.89,0
              -134.5,-6.53,0
              -134.75,-7.18,0
              -135,-7.83,0
              -135.25,-8.47,0
              -135.5,-9.11,0
              -135.75,-9.75,0
              -136,-10.38,0
              -136.25,-11.01,0
              -136.5,-11.64,0
              -136.75,-12.27,0
              -137,-12.89,0
              -137.25,-13.51,0
              -137.5,-14.13,0
              -137.75,-14.74,0
              -138,-15.35,0
              -138.25,-15.95,0
              -138.5,-16.56,0
              -138.75,-17.15,0
              -139,-17.75,0
              -139.25,-18.34,0
              -139.5,-18.92,0
              -139.75,-19.5,0
              -139.75,-19.5,0
              -140,-19.53,0
              -140.25,-19.56,0
              -140.5,-19.59,0
              -140.75,-19.63,0
              -141,-19.66,0
              -141.25,-19.69,0
              -141.5,-19.72,0
              -141.75,-19.75,0
              -142,-19.78,0
              -142.25,-19.8,0
              -142.5,-19.83,0
              -142.75,-19.86,0
              -143,-19.89,0
              -143.25,-19.92,0
              -143.5,-19.94,0
              -143.75,-19.97,0
              -144,-20,0
              -144.25,-20.02,0
              -144.5,-20.05,0
              -144.75,-20.07,0
              -145,-20.1,0
              -145.25,-20.12,0
              -145.5,-20.15,0
              -145.75,-20.17,0
              -146,-20.19,0
              -146.25,-20.22,0
              -146.5,-20.24,0
              -146.75,-20.26,0
              -147,-20.28,0
              -147.25,-20.3,0
              -147.5,-20.33,0
              -147.75,-20.35,0
              -148,-20.37,0
              -148.25,-20.39,0
              -148.5,-20.41,0
              -148.75,-20.43,0
              -149,-20.45,0
              -149.25,-20.46,0
              -149.5,-20.48,0
              -149.75,-20.5,0
              -150,-20.52,0
              -150.25,-20.54,0
              -150.5,-20.55,0
              -150.75,-20.57,0
              -151,-20.59,0
              -151.25,-20.6,0
              -151.5,-20.62,0
              -151.75,-20.63,0
              -152,-20.65,0
              -152.25,-20.66,0
              -152.5,-20.67,0
              -152.75,-20.69,0
              -153,-20.7,0
              -153.25,-20.71,0
              -153.5,-20.73,0
              -153.75,-20.74,0
              -154,-20.75,0
              -154.25,-20.76,0
              -154.5,-20.77,0
              -154.75,-20.78,0
              -155,-20.79,0
              -155.25,-20.8,0
              -155.5,-20.81,0
              -155.75,-20.82,0
              -156,-20.83,0
              -156.25,-20.84,0
              -156.5,-20.85,0
              -156.75,-20.86,0
              -157,-20.86,0
              -157.25,-20.87,0
              -157.5,-20.88,0
              -157.75,-20.88,0
              -158,-20.89,0
              -158.25,-20.9,0
              -158.5,-20.9,0
              -158.75,-20.91,0
              -159,-20.91,0
              -159.25,-20.92,0
              -159.5,-20.92,0
              -159.75,-20.92,0
              -160,-20.93,0
              -160.25,-20.93,0
              -160.5,-20.93,0
              -160.75,-20.93,0
              -161,-20.93,0
              -161.25,-20.94,0
              -161.5,-20.94,0
              -161.75,-20.94,0
              -162,-20.94,0
              -162.25,-20.94,0
              -162.5,-20.94,0
              -162.75,-20.94,0
              -163,-20.93,0
              -163.25,-20.93,0
              -163.5,-20.93,0
              -163.75,-20.93,0
              -164,-20.93,0
              -164.25,-20.92,0
              -164.5,-20.92,0
              -164.75,-20.92,0
              -165,-20.91,0
              -165.25,-20.91,0
              -165.5,-20.9,0
              -165.75,-20.9,0
              -166,-20.89,0
              -166.25,-20.88,0
              -166.5,-20.88,0
              -166.75,-20.87,0
              -167,-20.86,0
              -167.25,-20.86,0
              -167.5,-20.85,0
              -167.75,-20.84,0
              -168,-20.83,0
              -168.25,-20.82,0
              -168.5,-20.81,0
              -168.75,-20.8,0
              -169,-20.79,0
              -169.25,-20.78,0
              -169.5,-20.77,0
              -169.75,-20.76,0
              -170,-20.75,0
              -170.25,-20.74,0
              -170.5,-20.73,0
              -170.75,-20.71,0
              -171,-20.7,0
              -171.25,-20.69,0
              -171.5,-20.67,0
              -171.75,-20.66,0
              -172,-20.65,0
              -172.25,-20.63,0
              -172.5,-20.62,0
              -172.75,-20.6,0
              -173,-20.59,0
              -173.25,-20.57,0
              -173.5,-20.55,0
              -173.75,-20.54,0
              -174,-20.52,0
              -174.25,-20.5,0
              -174.5,-20.48,0
              -174.75,-20.46,0
              -175,-20.45,0
              -175.25,-20.43,0
              -175.5,-20.41,0
              -175.75,-20.39,0
              -176,-20.37,0
              -176.25,-20.35,0
              -176.5,-20.33,0
              -176.75,-20.3,0
              -177,-20.28,0
              -177.25,-20.26,0
              -177.5,-20.24,0
              -177.75,-20.22,0
              -178,-20.19,0
              -178.25,-20.17,0
              -178.5,-20.15,0
              -178.75,-20.12,0
              -179,-20.1,0
              -179.25,-20.07,0
              -179.5,-20.05,0
              -179.75,-20.02,0
              -179.99999,-20,0
              -179.99999,38.52,0
            </coordinates>
          </LinearRing>
        </outerBoundaryIs>
      </Polygon>
    </Placemark>
  </Document>
</kml>
